OBJECT_NAME,OBJECT_ID,EPOCH,MEAN_MOTION,ECCENTRICITY,INCLINATION,RA_OF_ASC_NODE,ARG_OF_PERICENTER,MEAN_ANOMALY,EPHEMERIS_TYPE,CLASSIFICATION_TYPE,NORAD_CAT_ID,ELEMENT_SET_NO,REV_AT_EPOCH,BSTAR,MEAN_MOTION_DOT,MEAN_MOTION_DDOT
BEIDOU-3S IGSO-1S (C31),2015-019A,2026-07-02T19:12:21.705408,1.00680073,.00768606,49.1798,295.2769,219.1125,144.2493,0,U,40549,999,4123,0,-.19E-5,0
GPS BIIF-10 (PRN 08),2015-033A,2026-07-05T16:03:34.932384,2.00555355,.01152285,53.9683,266.3241,30.2796,330.4507,0,U,40730,999,8036,0,-.9E-7,0
BEIDOU-3S M2S (C58),2015-037A,2026-07-05T13:54:42.916032,1.86232493,.0009147,54.8530,301.4135,257.7204,102.2021,0,U,40748,999,7446,0,-.59E-6,0
BEIDOU-3S M1S (C57),2015-037B,2026-07-04T04:10:48.257760,1.86254939,.0002995,54.8513,301.4491,63.1742,296.8797,0,U,40749,999,7444,0,-.58E-6,0
GSAT0206 (GALILEO 10),2015-045B,2026-07-03T21:09:31.262976,1.70473649,.0001957,54.9411,221.1433,327.0241,33.0412,0,U,40890,999,6732,0,.74E-6,0
BEIDOU-3S IGSO-2S (C56),2015-053A,2026-07-05T16:45:47.095200,1.00255372,.00657909,49.1930,258.5626,192.9102,177.7258,0,U,40938,999,3954,0,-.108E-5,0
GPS BIIF-11 (PRN 10),2015-062A,2026-07-06T05:21:07.872192,2.00567056,.01124937,56.9721,30.0783,230.9298,128.1143,0,U,41019,999,7821,0,-.54E-6,0
GSAT-15 (GAGAN/PRN 139),2015-065A,2026-07-06T02:15:44.879616,1.00272315,.00040266,0.0347,248.0608,198.5898,324.8627,0,U,41028,999,3898,0,-.244E-5,0
GSAT0209 (GALILEO 12),2015-079A,2026-07-04T15:16:27.577056,1.70473787,.0005067,55.8369,100.7834,348.6925,11.3144,0,U,41174,999,6507,0,0,0
GSAT0208 (GALILEO 11),2015-079B,2026-07-01T22:10:17.474304,1.70473736,.0004614,55.8336,100.8547,354.4374,5.5610,0,U,41175,999,6544,0,-.13E-6,0
IRNSS-1E,2016-003A,2026-07-05T13:38:38.462208,1.00270145,.00191631,33.2728,59.4834,178.9195,1.5806,0,U,41241,999,3826,0,-.299E-5,0
GPS BIIF-12 (PRN 32),2016-007A,2026-07-05T19:35:23.070336,2.00575903,.00966228,55.5343,88.7211,247.6354,111.3784,0,U,41328,999,7621,0,-.11E-6,0
COSMOS 2514 (751),2016-008A,2026-07-05T14:04:18.823008,2.13102617,.001198,65.0096,312.3755,200.0779,159.8882,0,U,41330,999,8101,0,-.44E-6,0
BEIDOU-2 IGSO-6 (C13),2016-021A,2026-06-26T02:38:38.671584,1.00258926,.0057558,60.2385,37.9495,231.0163,137.2672,0,U,41434,999,3757,0,-.145E-5,0
IRNSS-1G,2016-027A,2026-07-05T22:00:08.578080,1.00277901,.00058208,5.2407,97.0429,7.6923,278.8170,0,U,41469,999,3736,0,-.321E-5,0
GSAT0211 (GALILEO 14),2016-030A,2026-07-04T09:27:13.569984,1.70473887,.000312,55.0914,221.2214,320.4697,39.5831,0,U,41549,999,6296,0,.74E-6,0
GSAT0210 (GALILEO 13),2016-030B,2026-07-03T11:28:19.668288,1.70473811,.000896,55.0896,221.2446,258.8551,101.1239,0,U,41550,999,6294,0,.74E-6,0
BEIDOU-2 G7 (C03),2016-037A,2026-07-06T07:28:28.097184,1.00267153,.00065643,1.7644,69.4575,5.4670,71.9792,0,U,41586,999,708,0,-.339E-5,0
EUTELSAT 117 WEST B (WAAS/PRN 131),2016-038B,2026-07-06T04:40:59.615616,1.00271390,.00000943,0.0026,206.3691,299.3488,91.7035,0,U,41589,999,3685,0,.3E-7,0
GSAT0207 (GALILEO 15),2016-069A,2026-07-05T12:23:25.059264,1.70473449,.00046223,55.5088,100.5792,338.2486,21.7516,0,U,41859,999,5971,0,0,0
GSAT0212 (GALILEO 16),2016-069B,2026-07-04T18:47:36.676032,1.70473848,.0004449,55.5064,100.5945,2.8841,357.1371,0,U,41860,999,5995,0,0,0
GSAT0213 (GALILEO 17),2016-069C,2026-06-28T02:40:06.685536,1.70474290,.00045371,55.5047,100.7870,315.9585,43.9839,0,U,41861,999,5970,0,-.34E-6,0
GSAT0214 (GALILEO 18),2016-069D,2026-07-05T07:06:58.790592,1.70473861,.0003671,55.5073,100.5810,327.9107,32.0866,0,U,41862,999,5995,0,0,0
SES-15 (WAAS/PRN 133),2017-026A,2026-07-06T06:20:07.914336,1.00267402,.00005187,0.0251,325.2778,130.5010,154.3501,0,U,42709,999,762,0,.75E-6,0
QZS-2 (QZSS/PRN 194),2017-028A,2026-07-05T10:34:23.894112,1.00279241,.0758397,39.3999,242.8847,269.4808,71.9203,0,U,42738,999,780,0,-.105E-5,0
QZS-3 (QZSS/PRN 199),2017-048A,2026-07-06T05:50:25.687104,1.00263319,.00019495,0.0823,223.7891,242.0858,32.9239,0,U,42917,999,3245,0,-.334E-5,0
COSMOS 2522 (752),2017-055A,2026-07-05T10:10:34.348224,2.13102028,.0010926,64.0803,191.2636,240.7321,119.1846,0,U,42939,999,6836,0,.103E-5,0
QZS-4 (QZSS/PRN 195),2017-062A,2026-07-05T07:36:43.259040,1.00293782,.074705,40.0986,343.2563,268.3572,284.3863,0,U,42965,999,3198,0,-.308E-5,0
BEIDOU-3 M1 (C19),2017-069A,2026-07-05T22:14:11.021280,1.86231416,.00095423,56.7080,62.4682,327.1907,32.8161,0,U,43001,999,5895,0,-.39E-6,0
BEIDOU-3 M2 (C20),2017-069B,2026-07-05T20:46:02.841888,1.86231041,.00085908,56.7072,62.5056,354.6254,5.4316,0,U,43002,999,5894,0,-.39E-6,0
GSAT0215 (GALILEO 19),2017-079A,2026-07-04T14:42:42.306624,1.70474500,.000355,55.0696,221.0270,263.9168,96.1170,0,U,43055,999,5328,0,.74E-6,0
